{"type": "FeatureCollection", "features": [ {"type": "Feature", "properties": {"norad_id": 40115, "name": "WORLDVIEW-3 (WV-3)", "group": "resource", "lat": 10.972084523651622, "lon": -128.49165831378468, "alt_km": 611.7213826798225, "timestamp": "2025-12-03T13:52:09.222383+00:00", "meta": {"OBJECT_NAME": "WORLDVIEW-3 (WV-3)", "OBJECT_ID": "2014-048A", "EPOCH": "2025-12-03T08:15:41.487552", "MEAN_MOTION": 14.85472756, "ECCENTRICITY": 0.00040878, "INCLINATION": 97.8626, "RA_OF_ASC_NODE": 49.7424, "ARG_OF_PERICENTER": 218.6999, "MEAN_ANOMALY": 141.3923, "EPHEMERIS_TYPE": 0, "CLASSIFICATION_TYPE": "U", "NORAD_CAT_ID": 40115, "ELEMENT_SET_NO": 999, "REV_AT_EPOCH": 61284, "BSTAR": 0.00021301492, "MEAN_MOTION_DOT": 1.784e-05, "MEAN_MOTION_DDOT": 0}, "tle": {"line1": "1 40115U 14048A   25337.34423018  .00001784  00000+0  21301-3 0  9992", "line2": "2 40115  97.8626  49.7424 0004087 218.6999 141.3923 14.85472756612847"}}, "geometry": {"type": "Point", "coordinates": [-128.49165831378468, 10.972084523651622]}}, {"type": "Feature", "properties": {"norad_id": 40118, "name": "GAOFEN-2", "group": "resource", "lat": 32.120871366277875, "lon": -138.1789800237209, "alt_km": 619.9559345791477, "timestamp": "2025-12-03T13:52:09.222393+00:00", "meta": {"OBJECT_NAME": "GAOFEN-2", "OBJECT_ID": "2014-049A", "EPOCH": "2025-12-03T08:20:23.938656", "MEAN_MOTION": 14.8058119, "ECCENTRICITY": 0.00081979, "INCLINATION": 98.0399, "RA_OF_ASC_NODE": 36.4992, "ARG_OF_PERICENTER": 140.0107, "MEAN_ANOMALY": 220.171, "EPHEMERIS_TYPE": 0, "CLASSIFICATION_TYPE": "U", "NORAD_CAT_ID": 40118, "ELEMENT_SET_NO": 999, "REV_AT_EPOCH": 61025, "BSTAR": 0.00015952218, "MEAN_MOTION_DOT": 1.17e-05, "MEAN_MOTION_DDOT": 0}, "tle": {"line1": "1 40118U 14049A   25337.34749929  .00001170  00000+0  15952-3 0  9992", "line2": "2 40118  98.0399  36.4992 0008197 140.0107 220.1710 14.80581190610259"}}, "geometry": {"type": "Point", "coordinates": [-138.1789800237209, 32.120871366277875]}}, {"type": "Feature", "properties": {"norad_id": 40143, "name": "YAOGAN-21", "group": "resource", "lat": 43.9121381730403, "lon": -151.74151907284295, "alt_km": 488.8425718351091, "timestamp": "2025-12-03T13:52:09.222404+00:00", "meta": {"OBJECT_NAME": "YAOGAN-21", "OBJECT_ID": "2014-053A", "EPOCH": "2025-12-03T08:32:53.030112", "MEAN_MOTION": 15.23486624, "ECCENTRICITY": 0.00102304, "INCLINATION": 97.1775, "RA_OF_ASC_NODE": 21.078, "ARG_OF_PERICENTER": 70.2092, "MEAN_ANOMALY": 290.0248, "EPHEMERIS_TYPE": 0, "CLASSIFICATION_TYPE": "U", "NORAD_CAT_ID": 40143, "ELEMENT_SET_NO": 999, "REV_AT_EPOCH": 62511, "BSTAR": 0.0004793308, "MEAN_MOTION_DOT": 0.00011391, "MEAN_MOTION_DDOT": 0}, "tle": {"line1": "1 40143U 14053A   25337.35616933  .00011391  00000+0  47933-3 0  9994", "line2": "2 40143  97.1775  21.0780 0010230  70.2092 290.0248 15.23486624625115"}}, "geometry": {"type": "Point", "coordinates": [-151.74151907284295, 43.9121381730403]}}, {"type": "Feature", "properties": {"norad_id": 40275, "name": "YAOGAN-22", "group": "resource", "lat": -18.306788729065772, "lon": 124.4687509724478, "alt_km": 1205.1903019753327, "timestamp": "2025-12-03T13:52:09.222415+00:00", "meta": {"OBJECT_NAME": "YAOGAN-22", "OBJECT_ID": "2014-063A", "EPOCH": "2025-12-03T08:29:16.965312", "MEAN_MOTION": 13.15522307, "ECCENTRICITY": 0.0005877, "INCLINATION": 100.7418, "RA_OF_ASC_NODE": 120.6409, "ARG_OF_PERICENTER": 270.8741, "MEAN_ANOMALY": 89.1697, "EPHEMERIS_TYPE": 0, "CLASSIFICATION_TYPE": "U", "NORAD_CAT_ID": 40275, "ELEMENT_SET_NO": 999, "REV_AT_EPOCH": 53406, "BSTAR": 0.00015567206, "MEAN_MOTION_DOT": 1.2e-07, "MEAN_MOTION_DDOT": 0}, "tle": {"line1": "1 40275U 14063A   25337.35366858  .00000012  00000+0  15567-3 0  9995", "line2": "2 40275 100.7418 120.6409 0005877 270.8741  89.1697 13.15522307534066"}}, "geometry": {"type": "Point", "coordinates": [124.4687509724478, -18.306788729065772]}}, {"type": "Feature", "properties": {"norad_id": 40298, "name": "ASNARO", "group": "resource", "lat": -36.75839321875607, "lon": 59.29663267003331, "alt_km": 518.2611789373195, "timestamp": "2025-12-03T13:52:09.222425+00:00", "meta": {"OBJECT_NAME": "ASNARO", "OBJECT_ID": "2014-070A", "EPOCH": "2025-12-03T07:42:33.094368", "MEAN_MOTION": 15.19172485, "ECCENTRICITY": 0.00051287, "INCLINATION": 97.367, "RA_OF_ASC_NODE": 53.5004, "ARG_OF_PERICENTER": 149.3051, "MEAN_ANOMALY": 210.8485, "EPHEMERIS_TYPE": 0, "CLASSIFICATION_TYPE": "U", "NORAD_CAT_ID": 40298, "ELEMENT_SET_NO": 999, "REV_AT_EPOCH": 61426, "BSTAR": 0.00064873208, "MEAN_MOTION_DOT": 0.00013594, "MEAN_MOTION_DDOT": 0}, "tle": {"line1": "1 40298U 14070A   25337.32121637  .00013594  00000+0  64873-3 0  9992", "line2": "2 40298  97.3670  53.5004 0005128 149.3051 210.8485 15.19172485614263"}}, "geometry": {"type": "Point", "coordinates": [59.29663267003331, -36.75839321875607]}}, {"type": "Feature", "properties": {"norad_id": 40310, "name": "YAOGAN-24", "group": "resource", "lat": -79.13484020906924, "lon": 156.69628379129884, "alt_km": 652.4034591858899, "timestamp": "2025-12-03T13:52:09.222435+00:00", "meta": {"OBJECT_NAME": "YAOGAN-24", "OBJECT_ID": "2014-072A", "EPOCH": "2025-12-03T07:44:13.958592", "MEAN_MOTION": 14.76144087, "ECCENTRICITY": 0.00142455, "INCLINATION": 98.1217, "RA_OF_ASC_NODE": 108.366, "ARG_OF_PERICENTER": 167.2372, "MEAN_ANOMALY": 192.9201, "EPHEMERIS_TYPE": 0, "CLASSIFICATION_TYPE": "U", "NORAD_CAT_ID": 40310, "ELEMENT_SET_NO": 999, "REV_AT_EPOCH": 59482, "BSTAR": 0.00022487554, "MEAN_MOTION_DOT": 1.503e-05, "MEAN_MOTION_DDOT": 0}, "tle": {"line1": "1 40310U 14072A   25337.32238378  .00001503  00000+0  22488-3 0  9993", "line2": "2 40310  98.1217 108.3660 0014245 167.2372 192.9201 14.76144087594820"}}, "geometry": {"type": "Point", "coordinates": [156.69628379129884, -79.13484020906924]}}, {"type": "Feature", "properties": {"norad_id": 40336, "name": "CBERS 4", "group": "resource", "lat": -79.61570361406733, "lon": 89.01289935559593, "alt_km": 781.5479010395047, "timestamp": "2025-12-03T13:52:09.222445+00:00", "meta": {"OBJECT_NAME": "CBERS 4", "OBJECT_ID": "2014-079A", "EPOCH": "2025-12-03T09:14:26.443392", "MEAN_MOTION": 14.35528186, "ECCENTRICITY": 0.00014552, "INCLINATION": 98.3322, "RA_OF_ASC_NODE": 35.7215, "ARG_OF_PERICENTER": 126.8022, "MEAN_ANOMALY": 233.3298, "EPHEMERIS_TYPE": 0, "CLASSIFICATION_TYPE": "U", "NORAD_CAT_ID": 40336, "ELEMENT_SET_NO": 999, "REV_AT_EPOCH": 57586, "BSTAR": 0.00010367358, "MEAN_MOTION_DOT": 2.56e-06, "MEAN_MOTION_DDOT": 0}, "tle": {"line1": "1 40336U 14079A   25337.38502828  .00000256  00000+0  10367-3 0  9995", "line2": "2 40336  98.3322  35.7215 0001455 126.8022 233.3298 14.35528186575868"}}, "geometry": {"type": "Point", "coordinates": [89.01289935559593, -79.61570361406733]}}, {"type": "Feature", "properties": {"norad_id": 40362, "name": "YAOGAN-26", "group": "resource", "lat": 60.3029663984673, "lon": -33.975660730888215, "alt_km": 438.9063386118287, "timestamp": "2025-12-03T13:52:09.222455+00:00", "meta": {"OBJECT_NAME": "YAOGAN-26", "OBJECT_ID": "2014-088A", "EPOCH": "2025-12-03T07:21:44.272224", "MEAN_MOTION": 15.38779588, "ECCENTRICITY": 0.00073273, "INCLINATION": 97.0637, "RA_OF_ASC_NODE": 338.3208, "ARG_OF_PERICENTER": 55.4156, "MEAN_ANOMALY": 304.7781, "EPHEMERIS_TYPE": 0, "CLASSIFICATION_TYPE": "U", "NORAD_CAT_ID": 40362, "ELEMENT_SET_NO": 999, "REV_AT_EPOCH": 60749, "BSTAR": 0.00062367042, "MEAN_MOTION_DOT": 0.00023897, "MEAN_MOTION_DDOT": 0}, "tle": {"line1": "1 40362U 14088A   25337.30676241  .00023897  00000+0  62367-3 0  9990", "line2": "2 40362  97.0637 338.3208 0007327  55.4156 304.7781 15.38779588607498"}}, "geometry": {"type": "Point", "coordinates": [-33.975660730888215, 60.3029663984673]}}, {"type": "Feature", "properties": {"norad_id": 40376, "name": "SMAP", "group": "resource", "lat": -74.84678399842734, "lon": 14.290431859624915, "alt_km": 690.5926977991867, "timestamp": "2025-12-03T13:52:09.222466+00:00", "meta": {"OBJECT_NAME": "SMAP", "OBJECT_ID": "2015-003A", "EPOCH": "2025-12-03T07:39:25.799904", "MEAN_MOTION": 14.6332531, "ECCENTRICITY": 0.00012146, "INCLINATION": 98.1292, "RA_OF_ASC_NODE": 342.1788, "ARG_OF_PERICENTER": 87.0889, "MEAN_ANOMALY": 273.0452, "EPHEMERIS_TYPE": 0, "CLASSIFICATION_TYPE": "U", "NORAD_CAT_ID": 40376, "ELEMENT_SET_NO": 999, "REV_AT_EPOCH": 57897, "BSTAR": 0.00017566391, "MEAN_MOTION_DOT": 8.6e-06, "MEAN_MOTION_DDOT": 0}, "tle": {"line1": "1 40376U 15003A   25337.31904861  .00000860  00000+0  17566-3 0  9992", "line2": "2 40376  98.1292 342.1788 0001214  87.0889 273.0452 14.63325310578971"}}, "geometry": {"type": "Point", "coordinates": [14.290431859624915, -74.84678399842734]}}, {"type": "Feature", "properties": {"norad_id": 40536, "name": "KOMPSAT-3A", "group": "resource", "lat": -28.213024020751263, "lon": 127.2724528460301, "alt_km": 440.7071312660282, "timestamp": "2025-12-03T13:52:09.222476+00:00", "meta": {"OBJECT_NAME": "KOMPSAT-3A", "OBJECT_ID": "2015-014A", "EPOCH": "2025-12-03T08:18:05.080032", "MEAN_MOTION": 15.43418385, "ECCENTRICITY": 0.00037671, "INCLINATION": 97.6772, "RA_OF_ASC_NODE": 311.178, "ARG_OF_PERICENTER": 147.4817, "MEAN_ANOMALY": 212.6662, "EPHEMERIS_TYPE": 0, "CLASSIFICATION_TYPE": "U", "NORAD_CAT_ID": 40536, "ELEMENT_SET_NO": 999, "REV_AT_EPOCH": 59150, "BSTAR": 0.0005572617, "MEAN_MOTION_DOT": 0.00024867, "MEAN_MOTION_DDOT": 0}, "tle": {"line1": "1 40536U 15014A   25337.34589213  .00024867  00000+0  55726-3 0  9998", "line2": "2 40536  97.6772 311.1780 0003767 147.4817 212.6662 15.43418385591501"}}, "geometry": {"type": "Point", "coordinates": [127.2724528460301, -28.213024020751263]}}]}